[{"OBJECT_NAME":"ONEWEB-0671","OBJECT_ID":"2023-029AL","EPOCH":"2026-03-09T17:50:38.622048","MEAN_MOTION":13.19725147,"ECCENTRICITY":0.00016026,"INCLINATION":87.9227,"RA_OF_ASC_NODE":324.7913,"ARG_OF_PERICENTER":84.1865,"MEAN_ANOMALY":275.945,"EPHEMERIS_TYPE":0,"CLASSIFICATION_TYPE":"U","NORAD_CAT_ID":55830,"ELEMENT_SET_NO":999,"REV_AT_EPOCH":14578,"BSTAR":-0.00024057224,"MEAN_MOTION_DOT":-8.3e-7,"MEAN_MOTION_DDOT":0},{"OBJECT_NAME":"USA 40 R\/B DEB","OBJECT_ID":"1989-061AC","EPOCH":"2026-03-08T00:01:15.403008","MEAN_MOTION":10.10519193,"ECCENTRICITY":0.23734113,"INCLINATION":56.91,"RA_OF_ASC_NODE":194.4062,"ARG_OF_PERICENTER":241.5269,"MEAN_ANOMALY":92.6662,"EPHEMERIS_TYPE":0,"CLASSIFICATION_TYPE":"U","NORAD_CAT_ID":23356,"ELEMENT_SET_NO":999,"REV_AT_EPOCH":24587,"BSTAR":0.02305221,"MEAN_MOTION_DOT":0.00039564,"MEAN_MOTION_DDOT":0}]
